[{"OBJECT_NAME":"ASTROCAST-0403","OBJECT_ID":"2023-001DG","EPOCH":"2026-03-09T19:45:35.762976","MEAN_MOTION":15.28004949,"ECCENTRICITY":0.00047706,"INCLINATION":97.5604,"RA_OF_ASC_NODE":161.3228,"ARG_OF_PERICENTER":338.0704,"MEAN_ANOMALY":22.033,"EPHEMERIS_TYPE":0,"CLASSIFICATION_TYPE":"U","NORAD_CAT_ID":55111,"ELEMENT_SET_NO":999,"REV_AT_EPOCH":12937,"BSTAR":0.0005131719,"MEAN_MOTION_DOT":0.00013959,"MEAN_MOTION_DDOT":0},{"OBJECT_NAME":"STARLINK-36142","OBJECT_ID":"2025-288Y","EPOCH":"2026-03-09T22:28:07.109760","MEAN_MOTION":15.27581229,"ECCENTRICITY":0.00013217,"INCLINATION":42.999,"RA_OF_ASC_NODE":22.1857,"ARG_OF_PERICENTER":245.7246,"MEAN_ANOMALY":114.3468,"EPHEMERIS_TYPE":0,"CLASSIFICATION_TYPE":"U","NORAD_CAT_ID":66981,"ELEMENT_SET_NO":999,"REV_AT_EPOCH":1532,"BSTAR":0.0011063281,"MEAN_MOTION_DOT":0.00030308,"MEAN_MOTION_DDOT":0}]
